{
    "week": 288,
    "satellites": [
        {
            "Name": "COSMOS 2545 (760)",
            "Line1": "1 45358U 20018A   24290.12522184 -.00000033  00000+0  00000+0 0  9993",
            "Line2": "2 45358  64.6916 333.7463 0012028 243.1718 116.7797  2.13102457 35682",
            "SatelliteNumber": "45358",
            "Classification": "U",
            "LaunchYear": "20",
            "LaunchNumber": "018",
            "PieceOfLaunch": "A",
            "EpochYear": "24",
            "EpochDay": 290.12522184,
            "FirstDerivativeMeanMotion": -3.3e-07,
            "SecondDerivativeMeanMotion": "00000+0",
            "BSTAR": "00000+0",
            "SetNumber": "999",
            "Inclination": 64.6916,
            "RAAN": 333.7463,
            "Eccentricity": 0.0012028,
            "ArgumentOfPerigee": 243.1718,
            "MeanAnomaly": 116.7797,
            "MeanMotion": 2.13102457,
            "RevolutionNumber": "3568"
        },
        {
            "Name": "COSMOS 2547 (705K)",
            "Line1": "1 46805U 20075A   24291.25029875  .00000015  00000+0  00000+0 0  9997",
            "Line2": "2 46805  64.5980 212.7846 0007406 239.1580 120.7866  2.13102665 30955",
            "SatelliteNumber": "46805",
            "Classification": "U",
            "LaunchYear": "20",
            "LaunchNumber": "075",
            "PieceOfLaunch": "A",
            "EpochYear": "24",
            "EpochDay": 291.25029875,
            "FirstDerivativeMeanMotion": 1.5e-07,
            "SecondDerivativeMeanMotion": "00000+0",
            "BSTAR": "00000+0",
            "SetNumber": "999",
            "Inclination": 64.598,
            "RAAN": 212.7846,
            "Eccentricity": 0.0007406,
            "ArgumentOfPerigee": 239.158,
            "MeanAnomaly": 120.7866,
            "MeanMotion": 2.13102665,
            "RevolutionNumber": "3095"
        },
        {
            "Name": "COSMOS 2557 (706K)",
            "Line1": "1 52984U 22075A   24290.94689887 -.00000041  00000+0  00000+0 0  9994",
            "Line2": "2 52984  64.6206 335.8365 0013557 274.1801  85.7387  2.13102045 17757",
            "SatelliteNumber": "52984",
            "Classification": "U",
            "LaunchYear": "22",
            "LaunchNumber": "075",
            "PieceOfLaunch": "A",
            "EpochYear": "24",
            "EpochDay": 290.94689887,
            "FirstDerivativeMeanMotion": -4.1e-07,
            "SecondDerivativeMeanMotion": "00000+0",
            "BSTAR": "00000+0",
            "SetNumber": "999",
            "Inclination": 64.6206,
            "RAAN": 335.8365,
            "Eccentricity": 0.0013557,
            "ArgumentOfPerigee": 274.1801,
            "MeanAnomaly": 85.7387,
            "MeanMotion": 2.13102045,
            "RevolutionNumber": "1775"
        },
        {
            "Name": "COSMOS 2559 (707K)",
            "Line1": "1 54031U 22130A   24290.89018854 -.00000041  00000+0  00000+0 0  9995",
            "Line2": "2 54031  64.5926 335.9518 0008355 226.9991 133.0045  2.13101318 15721",
            "SatelliteNumber": "54031",
            "Classification": "U",
            "LaunchYear": "22",
            "LaunchNumber": "130",
            "PieceOfLaunch": "A",
            "EpochYear": "24",
            "EpochDay": 290.89018854,
            "FirstDerivativeMeanMotion": -4.1e-07,
            "SecondDerivativeMeanMotion": "00000+0",
            "BSTAR": "00000+0",
            "SetNumber": "999",
            "Inclination": 64.5926,
            "RAAN": 335.9518,
            "Eccentricity": 0.0008355,
            "ArgumentOfPerigee": 226.9991,
            "MeanAnomaly": 133.0045,
            "MeanMotion": 2.13101318,
            "RevolutionNumber": "1572"
        },
        {
            "Name": "COSMOS 2564 (761)",
            "Line1": "1 54377U 22161A   24291.08048024  .00000014  00000+0  00000+0 0  9995",
            "Line2": "2 54377  64.7395 212.9169 0009607 218.9909 140.9563  2.13102061 14674",
            "SatelliteNumber": "54377",
            "Classification": "U",
            "LaunchYear": "22",
            "LaunchNumber": "161",
            "PieceOfLaunch": "A",
            "EpochYear": "24",
            "EpochDay": 291.08048024,
            "FirstDerivativeMeanMotion": 1.4e-07,
            "SecondDerivativeMeanMotion": "00000+0",
            "BSTAR": "00000+0",
            "SetNumber": "999",
            "Inclination": 64.7395,
            "RAAN": 212.9169,
            "Eccentricity": 0.0009607,
            "ArgumentOfPerigee": 218.9909,
            "MeanAnomaly": 140.9563,
            "MeanMotion": 2.13102061,
            "RevolutionNumber": "1467"
        },
        {
            "Name": "COSMOS 2569 (703K)",
            "Line1": "1 57517U 23114A   24291.09691811  .00000048  00000+0  00000+0 0  9999",
            "Line2": "2 57517  64.9741  93.1815 0008635 292.2576  67.6654  2.13103912  9308",
            "SatelliteNumber": "57517",
            "Classification": "U",
            "LaunchYear": "23",
            "LaunchNumber": "114",
            "PieceOfLaunch": "A",
            "EpochYear": "24",
            "EpochDay": 291.09691811,
            "FirstDerivativeMeanMotion": 4.8e-07,
            "SecondDerivativeMeanMotion": "00000+0",
            "BSTAR": "00000+0",
            "SetNumber": "999",
            "Inclination": 64.9741,
            "RAAN": 93.1815,
            "Eccentricity": 0.0008635,
            "ArgumentOfPerigee": 292.2576,
            "MeanAnomaly": 67.6654,
            "MeanMotion": 2.13103912,
            "RevolutionNumber": "930"
        }
    ]
}